[{"OBJECT_NAME":"OSCAR 31","OBJECT_ID":"1988-074B","EPOCH":"2026-03-06T08:00:25.352928","MEAN_MOTION":13.42597344,"ECCENTRICITY":0.00946288,"INCLINATION":90.0431,"RA_OF_ASC_NODE":20.891,"ARG_OF_PERICENTER":3.3125,"MEAN_ANOMALY":151.0418,"EPHEMERIS_TYPE":0,"CLASSIFICATION_TYPE":"U","NORAD_CAT_ID":19420,"ELEMENT_SET_NO":999,"REV_AT_EPOCH":83772,"BSTAR":0.00018149854,"MEAN_MOTION_DOT":1.14e-6,"MEAN_MOTION_DDOT":0}]
