OSCAR 31                
1 19420U 88074B   26065.33362677  .00000114  00000+0  18150-3 0  9992
2 19420  90.0431  20.8910 0094628   3.3125 151.0418 13.42597344837727
